[
  {
    "OBJECT_NAME": "IRIDIUM 157",
    "OBJECT_ID": "2018-030C",
    "EPOCH": "2026-07-06T17:18:47.327040",
    "MEAN_MOTION": 14.3421842,
    "ECCENTRICITY": 0.0002256,
    "INCLINATION": 86.3966,
    "RA_OF_ASC_NODE": 282.2535,
    "ARG_OF_PERICENTER": 95.438,
    "MEAN_ANOMALY": 264.7073,
    "EPHEMERIS_TYPE": 0,
    "CLASSIFICATION_TYPE": "U",
    "NORAD_CAT_ID": 43251,
    "ELEMENT_SET_NO": 999,
    "REV_AT_EPOCH": 43293,
    "BSTAR": 0.000024201,
    "MEAN_MOTION_DOT": 8.8e-7,
    "MEAN_MOTION_DDOT": 0
  },
  {
    "OBJECT_NAME": "IRIDIUM 140",
    "OBJECT_ID": "2018-030D",
    "EPOCH": "2026-07-06T16:05:43.215648",
    "MEAN_MOTION": 14.34219087,
    "ECCENTRICITY": 0.0002229,
    "INCLINATION": 86.3963,
    "RA_OF_ASC_NODE": 282.2869,
    "ARG_OF_PERICENTER": 95.9499,
    "MEAN_ANOMALY": 264.1951,
    "EPHEMERIS_TYPE": 0,
    "CLASSIFICATION_TYPE": "U",
    "NORAD_CAT_ID": 43252,
    "ELEMENT_SET_NO": 999,
    "REV_AT_EPOCH": 43298,
    "BSTAR": 0.000044974,
    "MEAN_MOTION_DOT": 0.00000146,
    "MEAN_MOTION_DDOT": 0
  },
  {
    "OBJECT_NAME": "IRIDIUM 145",
    "OBJECT_ID": "2018-030E",
    "EPOCH": "2026-07-06T17:27:54.844704",
    "MEAN_MOTION": 14.34216712,
    "ECCENTRICITY": 0.0002364,
    "INCLINATION": 86.3964,
    "RA_OF_ASC_NODE": 282.2354,
    "ARG_OF_PERICENTER": 102.9496,
    "MEAN_ANOMALY": 257.1964,
    "EPHEMERIS_TYPE": 0,
    "CLASSIFICATION_TYPE": "U",
    "NORAD_CAT_ID": 43253,
    "ELEMENT_SET_NO": 999,
    "REV_AT_EPOCH": 43292,
    "BSTAR": 0.000032404,
    "MEAN_MOTION_DOT": 0.00000111,
    "MEAN_MOTION_DDOT": 0
  },
  {
    "OBJECT_NAME": "IRIDIUM 146",
    "OBJECT_ID": "2018-030F",
    "EPOCH": "2026-07-06T18:40:59.268000",
    "MEAN_MOTION": 14.34218735,
    "ECCENTRICITY": 0.0002329,
    "INCLINATION": 86.3962,
    "RA_OF_ASC_NODE": 282.2262,
    "ARG_OF_PERICENTER": 98.0232,
    "MEAN_ANOMALY": 262.1229,
    "EPHEMERIS_TYPE": 0,
    "CLASSIFICATION_TYPE": "U",
    "NORAD_CAT_ID": 43254,
    "ELEMENT_SET_NO": 999,
    "REV_AT_EPOCH": 43294,
    "BSTAR": 0.000026666,
    "MEAN_MOTION_DOT": 9.4e-7,
    "MEAN_MOTION_DDOT": 0
  },
  {
    "OBJECT_NAME": "IRIDIUM 148",
    "OBJECT_ID": "2018-030G",
    "EPOCH": "2026-07-06T16:14:51.397728",
    "MEAN_MOTION": 14.34217543,
    "ECCENTRICITY": 0.000234,
    "INCLINATION": 86.3966,
    "RA_OF_ASC_NODE": 282.3122,
    "ARG_OF_PERICENTER": 94.9557,
    "MEAN_ANOMALY": 265.1906,
    "EPHEMERIS_TYPE": 0,
    "CLASSIFICATION_TYPE": "U",
    "NORAD_CAT_ID": 43255,
    "ELEMENT_SET_NO": 999,
    "REV_AT_EPOCH": 43296,
    "BSTAR": 0.000062416,
    "MEAN_MOTION_DOT": 0.00000195,
    "MEAN_MOTION_DDOT": 0
  },
  {
    "OBJECT_NAME": "IRIDIUM 142",
    "OBJECT_ID": "2018-030H",
    "EPOCH": "2026-07-06T15:29:11.315040",
    "MEAN_MOTION": 14.34218923,
    "ECCENTRICITY": 0.0002369,
    "INCLINATION": 86.396,
    "RA_OF_ASC_NODE": 282.2135,
    "ARG_OF_PERICENTER": 98.941,
    "MEAN_ANOMALY": 261.2054,
    "EPHEMERIS_TYPE": 0,
    "CLASSIFICATION_TYPE": "U",
    "NORAD_CAT_ID": 43256,
    "ELEMENT_SET_NO": 999,
    "REV_AT_EPOCH": 43292,
    "BSTAR": 0.000091602,
    "MEAN_MOTION_DOT": 0.00000276,
    "MEAN_MOTION_DDOT": 0
  },
  {
    "OBJECT_NAME": "IRIDIUM 150",
    "OBJECT_ID": "2018-030J",
    "EPOCH": "2026-07-06T16:23:59.297280",
    "MEAN_MOTION": 14.34218642,
    "ECCENTRICITY": 0.0002222,
    "INCLINATION": 86.3964,
    "RA_OF_ASC_NODE": 282.3148,
    "ARG_OF_PERICENTER": 96.4536,
    "MEAN_ANOMALY": 263.6913,
    "EPHEMERIS_TYPE": 0,
    "CLASSIFICATION_TYPE": "U",
    "NORAD_CAT_ID": 43257,
    "ELEMENT_SET_NO": 999,
    "REV_AT_EPOCH": 43295,
    "BSTAR": 0.000032293,
    "MEAN_MOTION_DOT": 0.0000011,
    "MEAN_MOTION_DDOT": 0
  },
  {
    "OBJECT_NAME": "IRIDIUM 143",
    "OBJECT_ID": "2018-030K",
    "EPOCH": "2026-07-06T17:37:03.235008",
    "MEAN_MOTION": 14.34217676,
    "ECCENTRICITY": 0.000227,
    "INCLINATION": 86.3968,
    "RA_OF_ASC_NODE": 282.3869,
    "ARG_OF_PERICENTER": 97.7894,
    "MEAN_ANOMALY": 262.356,
    "EPHEMERIS_TYPE": 0,
    "CLASSIFICATION_TYPE": "U",
    "NORAD_CAT_ID": 43258,
    "ELEMENT_SET_NO": 999,
    "REV_AT_EPOCH": 43289,
    "BSTAR": 0.000035732,
    "MEAN_MOTION_DOT": 0.0000012,
    "MEAN_MOTION_DDOT": 0
  },
  {
    "OBJECT_NAME": "IRIDIUM 161",
    "OBJECT_ID": "2018-047C",
    "EPOCH": "2026-07-06T17:17:12.571296",
    "MEAN_MOTION": 14.43283247,
    "ECCENTRICITY": 0.0002389,
    "INCLINATION": 86.4471,
    "RA_OF_ASC_NODE": 80.3035,
    "ARG_OF_PERICENTER": 79.2434,
    "MEAN_ANOMALY": 280.9035,
    "EPHEMERIS_TYPE": 0,
    "CLASSIFICATION_TYPE": "U",
    "NORAD_CAT_ID": 43478,
    "ELEMENT_SET_NO": 999,
    "REV_AT_EPOCH": 42795,
    "BSTAR": 0.00007509,
    "MEAN_MOTION_DOT": 0.00000273,
    "MEAN_MOTION_DDOT": 0
  },
  {
    "OBJECT_NAME": "IRIDIUM 152",
    "OBJECT_ID": "2018-047D",
    "EPOCH": "2026-07-06T20:18:43.003584",
    "MEAN_MOTION": 14.34217891,
    "ECCENTRICITY": 0.0002188,
    "INCLINATION": 86.3947,
    "RA_OF_ASC_NODE": 80.1122,
    "ARG_OF_PERICENTER": 81.9212,
    "MEAN_ANOMALY": 278.2232,
    "EPHEMERIS_TYPE": 0,
    "CLASSIFICATION_TYPE": "U",
    "NORAD_CAT_ID": 43479,
    "ELEMENT_SET_NO": 999,
    "REV_AT_EPOCH": 42530,
    "BSTAR": 0.000070645,
    "MEAN_MOTION_DOT": 0.00000218,
    "MEAN_MOTION_DDOT": 0
  },
  {
    "OBJECT_NAME": "IRIDIUM 147",
    "OBJECT_ID": "2018-047E",
    "EPOCH": "2026-07-06T17:06:53.834976",
    "MEAN_MOTION": 14.34217455,
    "ECCENTRICITY": 0.0002281,
    "INCLINATION": 86.3948,
    "RA_OF_ASC_NODE": 80.1733,
    "ARG_OF_PERICENTER": 87.9808,
    "MEAN_ANOMALY": 272.1649,
    "EPHEMERIS_TYPE": 0,
    "CLASSIFICATION_TYPE": "U",
    "NORAD_CAT_ID": 43480,
    "ELEMENT_SET_NO": 999,
    "REV_AT_EPOCH": 42528,
    "BSTAR": 0.000069817,
    "MEAN_MOTION_DOT": 0.00000215,
    "MEAN_MOTION_DDOT": 0
  },
  {
    "OBJECT_NAME": "IRIDIUM 110",
    "OBJECT_ID": "2018-047F",
    "EPOCH": "2026-07-06T17:16:02.116416",
    "MEAN_MOTION": 14.34218959,
    "ECCENTRICITY": 0.0002313,
    "INCLINATION": 86.395,
    "RA_OF_ASC_NODE": 80.2631,
    "ARG_OF_PERICENTER": 76.3409,
    "MEAN_ANOMALY": 283.8044,
    "EPHEMERIS_TYPE": 0,
    "CLASSIFICATION_TYPE": "U",
    "NORAD_CAT_ID": 43481,
    "ELEMENT_SET_NO": 999,
    "REV_AT_EPOCH": 42527,
    "BSTAR": 0.000076782,
    "MEAN_MOTION_DOT": 0.00000235,
    "MEAN_MOTION_DDOT": 0
  },
  {
    "OBJECT_NAME": "IRIDIUM 162",
    "OBJECT_ID": "2018-047G",
    "EPOCH": "2026-07-06T17:08:08.244384",
    "MEAN_MOTION": 14.43282126,
    "ECCENTRICITY": 0.0002231,
    "INCLINATION": 86.447,
    "RA_OF_ASC_NODE": 80.197,
    "ARG_OF_PERICENTER": 83.8954,
    "MEAN_ANOMALY": 276.2501,
    "EPHEMERIS_TYPE": 0,
    "CLASSIFICATION_TYPE": "U",
    "NORAD_CAT_ID": 43482,
    "ELEMENT_SET_NO": 999,
    "REV_AT_EPOCH": 42794,
    "BSTAR": 0.000081943,
    "MEAN_MOTION_DOT": 0.00000296,
    "MEAN_MOTION_DDOT": 0
  },
  {
    "OBJECT_NAME": "IRIDIUM 160",
    "OBJECT_ID": "2018-061A",
    "EPOCH": "2026-07-06T15:58:02.390016",
    "MEAN_MOTION": 14.34218353,
    "ECCENTRICITY": 0.0002282,
    "INCLINATION": 86.3944,
    "RA_OF_ASC_NODE": 48.651,
    "ARG_OF_PERICENTER": 85.6549,
    "MEAN_ANOMALY": 274.4907,
    "EPHEMERIS_TYPE": 0,
    "CLASSIFICATION_TYPE": "U",
    "NORAD_CAT_ID": 43569,
    "ELEMENT_SET_NO": 999,
    "REV_AT_EPOCH": 41616,
    "BSTAR": 0.000044583,
    "MEAN_MOTION_DOT": 0.00000145,
    "MEAN_MOTION_DDOT": 0
  }
]